ORBCOMM FM103           
1 40091U 14040F   24117.43463110  .00001944  00000+0  46991-3 0  9999
2 40091  47.0036 183.5070 0001957 198.6061 161.4752 14.56523827520379
ORBCOMM FM114           
1 41179U 15081A   24116.91966491  .00003379  00000+0  78867-3 0  9996
2 41179  47.0008  95.2190 0002120 253.3063 106.7589 14.56541243443604
ORBCOMM FM119           
1 41180U 15081B   24117.36962680  .00002115  00000+0  50815-3 0  9994
2 41180  47.0015   2.2884 0001891 292.0863  67.9821 14.56509739444921
ORBCOMM FM105           
1 41181U 15081C   24117.57162253  .00001087  00000+0  35816-3 0  9997
2 41181  47.0022 326.9799 0002329 256.9052 103.1568 14.44348155440610
ORBCOMM FM110           
1 41182U 15081D   24116.34806893  .00002552  00000+0  60505-3 0  9998
2 41182  46.9998  97.3200 0001707  17.1652 342.9291 14.56528086443399
ORBCOMM FM118           
1 41183U 15081E   24116.32531822  .00001862  00000+0  45168-3 0  9995
2 41183  47.0023  97.7298 0001700  15.1717 344.9218 14.56516086443494
ORBCOMM FM112           
1 41184U 15081F   24116.79850736  .00003560  00000+0  82895-3 0  9990
2 41184  46.9993   4.2019 0001438 272.6061  87.4659 14.56540272444788
ORBCOMM FM113           
1 41185U 15081G   24116.77562562  .00003395  00000+0  79231-3 0  9992
2 41185  47.0012   4.5739 0001244 299.0067  61.0693 14.56534284444769
